[{"OBJECT_NAME":"YAOGAN-30 04B","OBJECT_ID":"2017-085B","EPOCH":"2026-03-09T23:08:06.218304","MEAN_MOTION":15.02136468,"ECCENTRICITY":0.00051709,"INCLINATION":34.9961,"RA_OF_ASC_NODE":34.6701,"ARG_OF_PERICENTER":206.1156,"MEAN_ANOMALY":153.9292,"EPHEMERIS_TYPE":0,"CLASSIFICATION_TYPE":"U","NORAD_CAT_ID":43082,"ELEMENT_SET_NO":999,"REV_AT_EPOCH":44776,"BSTAR":0.0003202307,"MEAN_MOTION_DOT":4.272e-5,"MEAN_MOTION_DDOT":0},{"OBJECT_NAME":"STARLINK-34925","OBJECT_ID":"2025-179Q","EPOCH":"2026-03-09T16:58:10.617312","MEAN_MOTION":15.05651298,"ECCENTRICITY":0.00010161,"INCLINATION":97.6023,"RA_OF_ASC_NODE":113.0242,"ARG_OF_PERICENTER":122.52,"MEAN_ANOMALY":237.6125,"EPHEMERIS_TYPE":0,"CLASSIFICATION_TYPE":"U","NORAD_CAT_ID":65249,"ELEMENT_SET_NO":999,"REV_AT_EPOCH":3182,"BSTAR":0.00022494632,"MEAN_MOTION_DOT":3.187e-5,"MEAN_MOTION_DDOT":0}]
